ONEWEB-0531             
1 54146U 22138AK  25001.34407855  .00000145  00000+0  32446-3 0  9991
2 54146  87.9247  20.2496 0002724 102.3733 257.7705 13.20772348109107
ONEWEB-0535             
1 54147U 22138AL  25001.52776251  .00000218  00000+0  51240-3 0  9995
2 54147  87.9155  50.6601 0002103  99.2778 260.8592 13.19726532107586
ONEWEB-0536             
1 54148U 22138AM  25001.33145078  .00000067  00000+0  13377-3 0  9993
2 54148  87.9245  20.2993 0002748 104.9767 255.1670 13.20770870109099
ONEWEB-0527             
1 54642U 22166A   25001.70690980 -.00000037  00000+0 -12080-3 0  9990
2 54642  87.9301 349.8876 0001759  89.3560 270.7775 13.21825042101329
ONEWEB-0528             
1 54643U 22166B   25001.94031032 -.00000072  00000+0 -20610-3 0  9991
2 54643  87.9303 349.8349 0001640  86.5235 273.6087 13.21826446101365
ONEWEB-0539             
1 54644U 22166C   25001.67379936  .00000112  00000+0  23956-3 0  9999
2 54644  87.9306 349.8927 0001766  79.3057 280.8276 13.21825444101325
ONEWEB-0540             
1 54645U 22166D   25001.89537531 -.00000054  00000+0 -16267-3 0  9995
2 54645  87.9301 349.8559 0001824  79.0008 281.1331 13.21826821101348
ONEWEB-0542             
1 54646U 22166E   25001.68325241  .00000094  00000+0  19527-3 0  9990
2 54646  87.9305 349.8895 0001998  73.8520 286.2833 13.21825216101327
